     3.04           N: GNSS NAV DATA    G: GPS              RINEX VERSION / TYPE
sbf2rin-15.6.1                          20230131 000702 UTC PGM / RUN BY / DATE 
GPSA   1.7695E-08 -7.4506E-09 -5.9605E-08  1.1921E-07       IONOSPHERIC CORR    
GPSB   1.3107E+05 -1.3107E+05  6.5536E+04 -2.6214E+05       IONOSPHERIC CORR    
GPUT  1.8626451492E-09 0.000000000E+00 319488 2247          TIME SYSTEM CORR    
    18                                                      LEAP SECONDS        
AMC4                                    MARKER NAME         COMMENT
40472S005                               MARKER NUMBER       COMMENT
 -1248596.2520 -4819428.2840  3976506.0340                  COMMENT
This data is provided as a public service by NASA/JPL.      COMMENT
No warranty is expressed or implied regarding suitability   COMMENT
for use.  For further information, contact:                 COMMENT
ggnops at jpl dot nasa dot gov                              COMMENT
                                                            END OF HEADER       
G01 2023 01 30 00 00 00 2.185096964240E-04-4.433786671143E-12 0.000000000000E+00
     1.790000000000E+02-5.984375000000E+01 3.942664227791E-09 8.680611292018E-01
    -2.970919013023E-06 1.226864813361E-02 6.247311830521E-06 5.153655653000E+03
     8.640000000000E+04-1.024454832077E-07-1.885420718472E+00 1.136213541031E-07
     9.892025855611E-01 2.751250000000E+02 9.366878246705E-01-8.076765001110E-09
    -2.335811581642E-10 1.000000000000E+00 2.247000000000E+03 0.000000000000E+00
     2.000000000000E+00 6.300000000000E+01 4.656612873077E-09 1.790000000000E+02
     7.921800000000E+04 4.000000000000E+00
G03 2023 01 30 00 00 00-3.684819675982E-04 3.410605131648E-12 0.000000000000E+00
     4.900000000000E+01-4.640625000000E+01 4.086241636937E-09-2.789394894865E-01
    -2.456828951836E-06 4.455263726413E-03 8.661299943924E-06 5.153734003067E+03
     8.640000000000E+04-1.490116119385E-08-8.534378615240E-01 1.080334186554E-07
     9.773507576678E-01 2.208125000000E+02 1.021934049255E+00-7.867470568871E-09
     2.325096849617E-10 1.000000000000E+00 2.247000000000E+03 0.000000000000E+00
     2.000000000000E+00 0.000000000000E+00 1.862645149231E-09 4.900000000000E+01
     8.242800000000E+04 4.000000000000E+00
G06 2023 01 30 00 00 00 5.658175796270E-04 5.229594535194E-12 0.000000000000E+00
     7.000000000000E+01-7.350000000000E+01 3.869446892280E-09 1.126609326886E+00
    -3.894791007042E-06 2.896769554354E-03 5.546957254410E-06 5.153603141785E+03
     8.640000000000E+04 5.774199962616E-08-1.893724703772E+00-3.539025783539E-08
     9.884621427416E-01 2.846875000000E+02-8.610703323156E-01-7.894971714404E-09
    -1.717928701483E-10 1.000000000000E+00 2.247000000000E+03 0.000000000000E+00
     2.000000000000E+00 0.000000000000E+00 3.725290298462E-09 7.000000000000E+01
     7.980600000000E+04 4.000000000000E+00
G07 2023 01 30 00 00 00 2.503413707018E-04-6.593836587854E-12 0.000000000000E+00
     2.500000000000E+01 1.493750000000E+01 4.913061791601E-09 2.687804904149E-01
     8.866190910339E-07 1.666451676283E-02 8.445233106613E-06 5.153593397141E+03
     8.640000000000E+04-1.266598701477E-07 1.243380934298E+00 2.402812242508E-07
     9.501532058548E-01 2.138750000000E+02-2.228307710212E+00-8.337490147073E-09
    -2.810831368123E-10 1.000000000000E+00 2.247000000000E+03 0.000000000000E+00
     2.000000000000E+00 0.000000000000E+00-1.117587089539E-08 2.500000000000E+01
     7.921800000000E+04 4.000000000000E+00
G11 2023 01 30 00 00 00-9.079556912184E-05-9.549694368616E-12 0.000000000000E+00
     1.790000000000E+02-7.493750000000E+01 4.344823836495E-09 2.334324170657E+00
    -3.887340426445E-06 7.797388825566E-04 5.466863512993E-06 5.153702072144E+03
     8.640000000000E+04 3.725290298462E-09-1.849720925238E+00-3.725290298462E-09
     9.645447970481E-01 2.772500000000E+02-2.678705915036E+00-8.117480982809E-09
    -1.342913080577E-10 1.000000000000E+00 2.247000000000E+03 0.000000000000E+00
     2.000000000000E+00 0.000000000000E+00-8.847564458847E-09 6.910000000000E+02
     8.353800000000E+04 4.000000000000E+00
G12 2023 01 30 00 00 00-3.340863622725E-04-4.547473508865E-12 0.000000000000E+00
     6.100000000000E+01 7.259375000000E+01 4.487329772440E-09-5.263100538520E-01
     3.835186362267E-06 8.883170899935E-03 8.380040526390E-06 5.153669746399E+03
     8.640000000000E+04-6.332993507385E-08 2.358047248144E+00 7.823109626770E-08
     9.664869568497E-01 2.271875000000E+02 1.331514916747E+00-8.103551831175E-09
    -1.178620522847E-11 1.000000000000E+00 2.247000000000E+03 0.000000000000E+00
     2.800000000000E+00 0.000000000000E+00-1.257285475731E-08 6.100000000000E+01
     8.533800000000E+04 4.000000000000E+00
G13 2023 01 30 00 00 00 4.676696844399E-04 6.252776074689E-12 0.000000000000E+00
     8.800000000000E+01-1.134375000000E+01 4.408397913182E-09 2.627207809065E+00
    -6.034970283508E-07 6.752894725651E-03 7.327646017075E-06 5.153662340164E+03
     8.640000000000E+04 5.587935447693E-08 3.301258944286E-01-8.381903171539E-08
     9.697006221403E-01 2.430000000000E+02 9.397709713360E-01-7.785324290006E-09
     1.767930784271E-10 1.000000000000E+00 2.247000000000E+03 0.000000000000E+00
     2.000000000000E+00 0.000000000000E+00-1.117587089539E-08 8.800000000000E+01
     7.921800000000E+04 4.000000000000E+00
G14 2023 01 30 00 00 00-3.890134394169E-05 8.299139153678E-12 0.000000000000E+00
     8.800000000000E+01 8.643750000000E+01 4.738768817314E-09-4.744023805576E-01
     4.436820745468E-06 2.612421172671E-03 8.333474397659E-06 5.153667612076E+03
     8.640000000000E+04 5.587935447693E-08 2.321240559889E+00 3.725290298462E-09
     9.498184199782E-01 2.128125000000E+02-3.081783990890E+00-8.147482232481E-09
    -5.393081786361E-11 1.000000000000E+00 2.247000000000E+03 0.000000000000E+00
     2.000000000000E+00 0.000000000000E+00-7.916241884232E-09 8.560000000000E+02
     7.921800000000E+04 4.000000000000E+00
G15 2023 01 30 00 00 00 8.932314813137E-06 3.296918293927E-12 0.000000000000E+00
     5.500000000000E+01-1.603125000000E+01 5.234146594644E-09 2.123881250076E+00
    -1.026317477226E-06 1.473260635976E-02 7.184222340584E-06 5.153665493011E+03
     8.640000000000E+04 6.519258022308E-08 5.654003850241E-02-3.371387720108E-07
     9.320623176225E-01 2.258750000000E+02 1.175776417727E+00-8.184983794572E-09
     2.778687172046E-10 1.000000000000E+00 2.247000000000E+03 0.000000000000E+00
     2.000000000000E+00 0.000000000000E+00-1.071020960808E-08 5.500000000000E+01
     7.921800000000E+04 4.000000000000E+00
G17 2023 01 30 00 00 00 6.967126391828E-04 2.501110429876E-12 0.000000000000E+00
     1.310000000000E+02 3.996875000000E+01 4.321608583773E-09 3.066026230242E+00
     2.233311533928E-06 1.372823456768E-02 3.432855010033E-06 5.153708045959E+03
     8.640000000000E+04 2.235174179077E-07-2.886626113850E+00 5.215406417847E-08
     9.760788308583E-01 3.196250000000E+02-1.425526182819E+00-7.959617264294E-09
    -4.285892810353E-11 1.000000000000E+00 2.247000000000E+03 0.000000000000E+00
     2.000000000000E+00 0.000000000000E+00-1.117587089539E-08 1.310000000000E+02
     7.921800000000E+04 4.000000000000E+00
G19 2023 01 30 00 00 00 2.707685343921E-04 5.115907697473E-12 0.000000000000E+00
     2.300000000000E+01 3.053125000000E+01 4.403754862638E-09-1.089216785291E+00
     1.665204763412E-06 9.067083592527E-03 3.866851329803E-06 5.153602256775E+03
     8.640000000000E+04-1.341104507446E-07-2.842014495780E+00-6.146728992462E-08
     9.750604072712E-01 3.147187500000E+02 2.235169931228E+00-8.298559954046E-09
     5.714523747137E-11 1.000000000000E+00 2.247000000000E+03 0.000000000000E+00
     2.000000000000E+00 0.000000000000E+00-1.536682248116E-08 2.300000000000E+01
     7.921800000000E+04 4.000000000000E+00
G21 2023 01 30 00 00 00 1.537334173918E-04 2.273736754432E-13 0.000000000000E+00
     2.100000000000E+01-5.487500000000E+01 4.401969073967E-09 3.048035155447E+00
    -2.596527338028E-06 2.483332937118E-02 4.997476935387E-06 5.153663871765E+03
     8.640000000000E+04 7.450580596924E-09-1.985844520635E+00 4.936009645462E-07
     9.612637687687E-01 2.786250000000E+02-8.271668400991E-01-7.844969631617E-09
    -1.067901625246E-10 1.000000000000E+00 2.247000000000E+03 0.000000000000E+00
     2.000000000000E+00 0.000000000000E+00-1.024454832077E-08 2.100000000000E+01
     7.921800000000E+04 4.000000000000E+00
G24 2023 01 30 00 00 00-5.163205787539E-05-1.637090463191E-11 0.000000000000E+00
     1.300000000000E+01-3.312500000000E+00 5.305578141483E-09 1.147005333673E+00
    -1.732259988785E-07 1.369736797642E-02 8.240342140198E-06 5.153660346985E+03
     8.640000000000E+04-1.844018697739E-07 1.154688842751E+00 6.519258022308E-08
     9.337559071615E-01 2.081875000000E+02 8.827452937705E-01-8.502497020272E-09
    -3.392998474863E-10 1.000000000000E+00 2.247000000000E+03 0.000000000000E+00
     2.000000000000E+00 0.000000000000E+00 2.328306436539E-09 1.300000000000E+01
     8.032800000000E+04 4.000000000000E+00
G30 2023 01 30 00 00 00-5.319099873304E-04 1.136868377216E-12 0.000000000000E+00
     4.000000000000E+01 1.125000000000E+01 5.176287041704E-09 1.289449247194E-01
     6.128102540970E-07 6.076503195800E-03 8.212402462959E-06 5.153643590927E+03
     8.640000000000E+04 6.891787052155E-08 1.251266405068E+00 6.705522537231E-08
     9.352826113949E-01 2.070000000000E+02-2.660283036564E+00-8.332489938795E-09
    -2.367955777720E-10 1.000000000000E+00 2.247000000000E+03 0.000000000000E+00
     2.000000000000E+00 0.000000000000E+00 3.725290298462E-09 4.000000000000E+01
     7.921800000000E+04 4.000000000000E+00
